SOYUZ-MS 28             
1 66664U 25275A   26192.18582566  .00005410  00000+0  10636-3 0  9998
2 66664  51.6302 181.3206 0006688 281.9973  78.0266 15.48977198645985
CREW DRAGON 12          
1 67796U 26031A   26192.18582566  .00005410  00000+0  10636-3 0  9996
2 67796  51.6302 181.3206 0006688 281.9973  78.0266 15.48977198628253
SHENZHOU-23 (SZ-23)     
1 69180U 26113A   26191.59979599  .00001397  00000+0  22374-4 0  9999
2 69180  41.4687 179.6858 0002649 286.3424  73.7123 15.58017112295921
