{"fetched_at":"2026-07-11T09:24:07.374Z","source":"https://celestrak.org/NORAD/elements/gp.php?GROUP=stations&FORMAT=JSON","constellation":"crewed-vehicles","records":[{"OBJECT_NAME":"SOYUZ-MS 28","OBJECT_ID":"2025-275A","EPOCH":"2026-07-11T04:27:35.337024","CLASSIFICATION_TYPE":"U","MEAN_MOTION":15.48977198,"ECCENTRICITY":0.0006688,"INCLINATION":51.6302,"RA_OF_ASC_NODE":181.3206,"ARG_OF_PERICENTER":281.9973,"MEAN_ANOMALY":78.0266,"EPHEMERIS_TYPE":0,"NORAD_CAT_ID":66664,"ELEMENT_SET_NO":999,"REV_AT_EPOCH":64598,"BSTAR":0.00010636,"MEAN_MOTION_DOT":0.0000541,"MEAN_MOTION_DDOT":0},{"OBJECT_NAME":"CREW DRAGON 12","OBJECT_ID":"2026-031A","EPOCH":"2026-07-11T04:27:35.337024","CLASSIFICATION_TYPE":"U","MEAN_MOTION":15.48977198,"ECCENTRICITY":0.0006688,"INCLINATION":51.6302,"RA_OF_ASC_NODE":181.3206,"ARG_OF_PERICENTER":281.9973,"MEAN_ANOMALY":78.0266,"EPHEMERIS_TYPE":0,"NORAD_CAT_ID":67796,"ELEMENT_SET_NO":999,"REV_AT_EPOCH":62825,"BSTAR":0.00010636,"MEAN_MOTION_DOT":0.0000541,"MEAN_MOTION_DDOT":0},{"OBJECT_NAME":"SHENZHOU-23 (SZ-23)","OBJECT_ID":"2026-113A","EPOCH":"2026-07-10T14:23:42.373536","CLASSIFICATION_TYPE":"U","MEAN_MOTION":15.58017112,"ECCENTRICITY":0.00026499,"INCLINATION":41.4687,"RA_OF_ASC_NODE":179.6858,"ARG_OF_PERICENTER":286.3424,"MEAN_ANOMALY":73.7123,"EPHEMERIS_TYPE":0,"NORAD_CAT_ID":69180,"ELEMENT_SET_NO":999,"REV_AT_EPOCH":29592,"BSTAR":0.000022373976,"MEAN_MOTION_DOT":0.00001397,"MEAN_MOTION_DDOT":0}]}
